{
"type": "FeatureCollection",
"name": "dongjak_station_accessibility",
"crs": { "type": "name", "properties": { "name": "urn:ogc:def:crs:EPSG::5179" } },
"features": [
{ "type": "Feature", "properties": { "역사_ID": 4406, "역사명": "보라매병원", "호선": "신림선", "위도": 37.4929598, "경도": 126.9234964, "침수거리_m": 234.06992017203893, "기준역명": "보라매병원", "stnNm": null, "lineNm": null, "전체엘리베이터수": null, "출구연결엘리베이터수": null, "출구엘리베이터존재": null }, "geometry": { "type": "Point", "coordinates": [ 949037.795279084239155, 1943901.321011998225003 ] } },
{ "type": "Feature", "properties": { "역사_ID": 4405, "역사명": "보라매공원", "호선": "신림선", "위도": 37.4955691, "경도": 126.9180827, "침수거리_m": 162.92601460045526, "기준역명": "보라매공원", "stnNm": null, "lineNm": null, "전체엘리베이터수": null, "출구연결엘리베이터수": null, "출구엘리베이터존재": null }, "geometry": { "type": "Point", "coordinates": [ 948561.016279640723951, 1944193.752036630641669 ] } },
{ "type": "Feature", "properties": { "역사_ID": 4120, "역사명": "동작(현충원)", "호선": "9호선", "위도": 37.502878, "경도": 126.978153, "침수거리_m": 583.84634302802931, "기준역명": "동작", "stnNm": null, "lineNm": null, "전체엘리베이터수": null, "출구연결엘리베이터수": null, "출구엘리베이터존재": null }, "geometry": { "type": "Point", "coordinates": [ 953875.50878522079438, 1944973.49540231260471 ] } },
{ "type": "Feature", "properties": { "역사_ID": 4119, "역사명": "흑석(중앙대입구)", "호선": "9호선", "위도": 37.50877, "경도": 126.963708, "침수거리_m": 79.287174110741901, "기준역명": "흑석", "stnNm": null, "lineNm": null, "전체엘리베이터수": null, "출구연결엘리베이터수": null, "출구엘리베이터존재": null }, "geometry": { "type": "Point", "coordinates": [ 952602.474257208639756, 1945634.355309346690774 ] } },
{ "type": "Feature", "properties": { "역사_ID": 4118, "역사명": "노들", "호선": "9호선", "위도": 37.512887, "경도": 126.953222, "침수거리_m": 153.7089020084542, "기준역명": "노들", "stnNm": null, "lineNm": null, "전체엘리베이터수": null, "출구연결엘리베이터수": null, "출구엘리베이터존재": null }, "geometry": { "type": "Point", "coordinates": [ 951678.367787273949943, 1946096.446009819628671 ] } },
{ "type": "Feature", "properties": { "역사_ID": 4117, "역사명": "노량진", "호선": "9호선", "위도": 37.513534, "경도": 126.941005, "침수거리_m": 25.122158831216307, "기준역명": "노량진", "stnNm": null, "lineNm": null, "전체엘리베이터수": null, "출구연결엘리베이터수": null, "출구엘리베이터존재": null }, "geometry": { "type": "Point", "coordinates": [ 950599.105209775036201, 1946174.571490318980068 ] } },
{ "type": "Feature", "properties": { "역사_ID": 2744, "역사명": "보라매", "호선": "7호선", "위도": 37.499872, "경도": 126.920428, "침수거리_m": 29.972652479007376, "기준역명": "보라매", "stnNm": "보라매", "lineNm": "7호선", "전체엘리베이터수": 2.0, "출구연결엘리베이터수": 1.0, "출구엘리베이터존재": "True" }, "geometry": { "type": "Point", "coordinates": [ 948771.272164873080328, 1944669.854204771108925 ] } },
{ "type": "Feature", "properties": { "역사_ID": 2743, "역사명": "신대방삼거리", "호선": "7호선", "위도": 37.499701, "경도": 126.928276, "침수거리_m": 0.0, "기준역명": "신대방삼거리", "stnNm": "신대방삼거리", "lineNm": "7호선", "전체엘리베이터수": 4.0, "출구연결엘리베이터수": 1.0, "출구엘리베이터존재": "True" }, "geometry": { "type": "Point", "coordinates": [ 949464.852558678830974, 1944646.639855679823086 ] } },
{ "type": "Feature", "properties": { "역사_ID": 2742, "역사명": "장승배기", "호선": "7호선", "위도": 37.504898, "경도": 126.93915, "침수거리_m": 0.0, "기준역명": "장승배기", "stnNm": "장승배기", "lineNm": "7호선", "전체엘리베이터수": 3.0, "출구연결엘리베이터수": 1.0, "출구엘리베이터존재": "True" }, "geometry": { "type": "Point", "coordinates": [ 950429.458422919968143, 1945217.432954238960519 ] } },
{ "type": "Feature", "properties": { "역사_ID": 2741, "역사명": "상도", "호선": "7호선", "위도": 37.502834, "경도": 126.94791, "침수거리_m": 19.992555088564657, "기준역명": "상도", "stnNm": "상도", "lineNm": "7호선", "전체엘리베이터수": 3.0, "출구연결엘리베이터수": 1.0, "출구엘리베이터존재": "True" }, "geometry": { "type": "Point", "coordinates": [ 951202.371050977963023, 1944983.86602077097632 ] } },
{ "type": "Feature", "properties": { "역사_ID": 2740, "역사명": "숭실대입구(살피재)", "호선": "7호선", "위도": 37.496029, "경도": 126.953822, "침수거리_m": 26.807971934664678, "기준역명": "숭실대입구", "stnNm": "숭실대입구", "lineNm": "7호선", "전체엘리베이터수": 4.0, "출구연결엘리베이터수": 2.0, "출구엘리베이터존재": "True" }, "geometry": { "type": "Point", "coordinates": [ 951720.538440466159955, 1944225.843350586947054 ] } },
{ "type": "Feature", "properties": { "역사_ID": 2739, "역사명": "남성", "호선": "7호선", "위도": 37.484596, "경도": 126.971251, "침수거리_m": 17.337405226922627, "기준역명": "남성", "stnNm": "남성", "lineNm": "7호선", "전체엘리베이터수": 4.0, "출구연결엘리베이터수": 2.0, "출구엘리베이터존재": "True" }, "geometry": { "type": "Point", "coordinates": [ 953254.063865172443911, 1942948.626737023703754 ] } },
{ "type": "Feature", "properties": { "역사_ID": 2738, "역사명": "이수", "호선": "7호선", "위도": 37.485196, "경도": 126.981605, "침수거리_m": 0.0, "기준역명": "이수", "stnNm": "이수", "lineNm": "7호선", "전체엘리베이터수": 3.0, "출구연결엘리베이터수": 1.0, "출구엘리베이터존재": "True" }, "geometry": { "type": "Point", "coordinates": [ 954169.819197372649796, 1943010.102294504176825 ] } },
{ "type": "Feature", "properties": { "역사_ID": 1004, "역사명": "노량진", "호선": "경부선", "위도": 37.514149, "경도": 126.94271, "침수거리_m": 69.530846103862501, "기준역명": "노량진", "stnNm": null, "lineNm": null, "전체엘리베이터수": null, "출구연결엘리베이터수": null, "출구엘리베이터존재": null }, "geometry": { "type": "Point", "coordinates": [ 950750.189091556705534, 1946241.908352730097249 ] } },
{ "type": "Feature", "properties": { "역사_ID": 433, "역사명": "사당", "호선": "4호선", "위도": 37.476955, "경도": 126.981651, "침수거리_m": 0.0, "기준역명": "사당", "stnNm": "사당", "lineNm": "4호선", "전체엘리베이터수": 2.0, "출구연결엘리베이터수": 1.0, "출구엘리베이터존재": "True" }, "geometry": { "type": "Point", "coordinates": [ 954168.852680419106036, 1942095.794719830155373 ] } },
{ "type": "Feature", "properties": { "역사_ID": 432, "역사명": "총신대입구(이수)", "호선": "4호선", "위도": 37.486263, "경도": 126.981989, "침수거리_m": 0.0, "기준역명": "총신대입구", "stnNm": "총신대입구", "lineNm": "4호선", "전체엘리베이터수": 4.0, "출구연결엘리베이터수": 2.0, "출구엘리베이터존재": "True" }, "geometry": { "type": "Point", "coordinates": [ 954204.419379054452293, 1943128.292214633896947 ] } },
{ "type": "Feature", "properties": { "역사_ID": 431, "역사명": "동작(현충원)", "호선": "4호선", "위도": 37.502852, "경도": 126.980347, "침수거리_m": 548.20039824173057, "기준역명": "동작", "stnNm": "동작", "lineNm": "4호선", "전체엘리베이터수": 2.0, "출구연결엘리베이터수": 0.0, "출구엘리베이터존재": "False" }, "geometry": { "type": "Point", "coordinates": [ 954069.415329953073524, 1944969.537805186817423 ] } },
{ "type": "Feature", "properties": { "역사_ID": 226, "역사명": "사당", "호선": "2호선", "위도": 37.476538, "경도": 126.981544, "침수거리_m": 0.0, "기준역명": "사당", "stnNm": "사당", "lineNm": "2호선", "전체엘리베이터수": 3.0, "출구연결엘리베이터수": 2.0, "출구엘리베이터존재": "True" }, "geometry": { "type": "Point", "coordinates": [ 954159.137219229247421, 1942049.583407583180815 ] } }
]
}
