{
"type": "FeatureCollection",
"name": "eunpyeong_shuttle_routes",
"crs": { "type": "name", "properties": { "name": "urn:ogc:def:crs:OGC:1.3:CRS84" } },
"features": [
{ "type": "Feature", "properties": { "id": "58", "CONTENTS_NAME": "이동약자무료셔틀버스(12번 노선)", "ADDR_OLD": "서울특별시 은평구 진관동 140-2", "ADDR_NEW": "서울특별시 은평구 연서로44길 7", "VALUE_01": "", "VALUE_02": "", "COORD_TYPE": "3" }, "geometry": { "type": "MultiLineString", "coordinates": [ [ [ 126.9313, 37.6312 ], [ 126.9315, 37.6321 ], [ 126.9316, 37.6322 ], [ 126.932, 37.6335 ], [ 126.9327, 37.6348 ], [ 126.9336, 37.6355 ], [ 126.9344, 37.6364 ], [ 126.9351, 37.6371 ], [ 126.9355, 37.638 ], [ 126.9357, 37.6388 ], [ 126.9373, 37.6405 ], [ 126.9385, 37.6418 ], [ 126.9395, 37.6441 ], [ 126.9396, 37.6452 ], [ 126.9394, 37.6459 ], [ 126.9388, 37.6467 ], [ 126.9379, 37.6477 ], [ 126.9371, 37.6485 ], [ 126.9368, 37.6491 ], [ 126.9366, 37.6498 ], [ 126.9367, 37.6504 ], [ 126.9362, 37.6505 ], [ 126.9347, 37.6504 ], [ 126.9327, 37.6502 ], [ 126.9312, 37.6502 ], [ 126.9313, 37.6492 ], [ 126.931, 37.6489 ], [ 126.9303, 37.6483 ], [ 126.9301, 37.6481 ], [ 126.9298, 37.6477 ], [ 126.9297, 37.6475 ], [ 126.9295, 37.6472 ], [ 126.929, 37.6469 ], [ 126.9273, 37.6457 ], [ 126.9264, 37.6451 ], [ 126.9251, 37.6443 ], [ 126.9246, 37.644 ], [ 126.9237, 37.6436 ], [ 126.9222, 37.6432 ], [ 126.9216, 37.6431 ], [ 126.9213, 37.6431 ], [ 126.9215, 37.6422 ], [ 126.9216, 37.6414 ], [ 126.9215, 37.6412 ], [ 126.9212, 37.6407 ], [ 126.9208, 37.6403 ], [ 126.92, 37.6395 ], [ 126.9196, 37.6392 ], [ 126.9188, 37.6392 ], [ 126.9186, 37.6392 ], [ 126.9186, 37.6381 ], [ 126.9186, 37.6366 ], [ 126.9188, 37.6352 ], [ 126.9189, 37.6346 ], [ 126.9191, 37.6335 ], [ 126.9196, 37.6332 ], [ 126.9206, 37.6328 ], [ 126.9216, 37.6314 ], [ 126.9202, 37.6307 ], [ 126.9195, 37.6306 ], [ 126.9191, 37.6305 ], [ 126.9191, 37.6293 ], [ 126.9192, 37.6286 ], [ 126.9194, 37.628 ], [ 126.9197, 37.6271 ], [ 126.9199, 37.6264 ], [ 126.9199, 37.6258 ], [ 126.9198, 37.6233 ], [ 126.9196, 37.6225 ], [ 126.9197, 37.6218 ], [ 126.9198, 37.6211 ], [ 126.92, 37.6205 ], [ 126.9203, 37.6199 ], [ 126.9207, 37.6195 ], [ 126.9213, 37.6189 ], [ 126.9201, 37.6186 ], [ 126.9198, 37.618 ], [ 126.9193, 37.6174 ], [ 126.919, 37.617 ], [ 126.9186, 37.6164 ], [ 126.9179, 37.6153 ], [ 126.9178, 37.6149 ], [ 126.9175, 37.6137 ], [ 126.9174, 37.6128 ], [ 126.9172, 37.6117 ], [ 126.9171, 37.611 ], [ 126.9169, 37.6106 ], [ 126.9168, 37.6104 ], [ 126.9165, 37.6099 ], [ 126.916, 37.6093 ], [ 126.9155, 37.6086 ], [ 126.9153, 37.6081 ], [ 126.9152, 37.6075 ], [ 126.9151, 37.6068 ], [ 126.9152, 37.6059 ], [ 126.9107, 37.6056 ], [ 126.9104, 37.6055 ], [ 126.9098, 37.6055 ], [ 126.909, 37.6054 ], [ 126.9084, 37.6053 ], [ 126.9074, 37.605 ], [ 126.9064, 37.6051 ], [ 126.9053, 37.6047 ], [ 126.9055, 37.6046 ], [ 126.9057, 37.6046 ], [ 126.9065, 37.6046 ], [ 126.9073, 37.6048 ], [ 126.9076, 37.605 ], [ 126.9079, 37.605 ], [ 126.9082, 37.6051 ], [ 126.9084, 37.6051 ], [ 126.9085, 37.6052 ], [ 126.9088, 37.6053 ], [ 126.9093, 37.6053 ], [ 126.9097, 37.6054 ], [ 126.9099, 37.6054 ], [ 126.9104, 37.6054 ], [ 126.9107, 37.6054 ], [ 126.9152, 37.6057 ], [ 126.9157, 37.6025 ], [ 126.916, 37.6008 ], [ 126.9158, 37.6004 ], [ 126.9158, 37.5997 ], [ 126.9156, 37.5992 ], [ 126.9124, 37.5985 ], [ 126.9122, 37.5984 ], [ 126.91, 37.598 ], [ 126.9093, 37.5966 ], [ 126.9079, 37.5939 ], [ 126.9075, 37.5933 ], [ 126.9065, 37.5923 ], [ 126.905, 37.5907 ], [ 126.9031, 37.5887 ], [ 126.902, 37.5876 ], [ 126.9015, 37.5872 ], [ 126.9011, 37.5868 ], [ 126.8998, 37.5858 ], [ 126.8966, 37.5833 ], [ 126.8953, 37.5821 ], [ 126.8983, 37.5803 ], [ 126.9006, 37.5789 ], [ 126.9011, 37.5785 ], [ 126.9018, 37.5778 ], [ 126.902538328030303, 37.577209344853649 ] ], [ [ 126.908635866488169, 37.582735890604546 ], [ 126.9092, 37.5833 ], [ 126.9103, 37.5844 ], [ 126.9105, 37.5846 ], [ 126.9117, 37.5857 ], [ 126.9122, 37.5863 ], [ 126.9127, 37.5871 ], [ 126.9131, 37.5882 ], [ 126.9135, 37.5898 ], [ 126.9141, 37.5924 ], [ 126.9171, 37.5901 ], [ 126.9202, 37.5877 ], [ 126.9221, 37.5861 ], [ 126.9228, 37.5858 ], [ 126.923, 37.5858 ], [ 126.9228, 37.5883 ], [ 126.9231, 37.5906 ], [ 126.9233, 37.5929 ], [ 126.9232, 37.5941 ], [ 126.9231, 37.5944 ], [ 126.9229, 37.5948 ], [ 126.923, 37.5951 ], [ 126.9232, 37.5955 ], [ 126.9236, 37.5961 ], [ 126.924, 37.5968 ], [ 126.9243, 37.5971 ], [ 126.9248, 37.5976 ], [ 126.9253, 37.5981 ], [ 126.9263, 37.5992 ], [ 126.9266, 37.5996 ], [ 126.9269, 37.6 ], [ 126.9271, 37.6006 ], [ 126.9272, 37.6013 ], [ 126.9271, 37.6018 ], [ 126.9269, 37.6021 ], [ 126.9266, 37.6024 ], [ 126.9261, 37.603 ], [ 126.9233, 37.606 ], [ 126.9231, 37.6063 ], [ 126.9234, 37.6068 ], [ 126.9239, 37.6073 ], [ 126.925, 37.6078 ], [ 126.926, 37.6082 ], [ 126.9265, 37.6087 ], [ 126.927, 37.6089 ], [ 126.9276, 37.6088 ], [ 126.9282, 37.6085 ], [ 126.9292, 37.6083 ], [ 126.9301, 37.6083 ], [ 126.9311, 37.6085 ], [ 126.9316, 37.6088 ], [ 126.9304, 37.6102 ], [ 126.9298, 37.6109 ], [ 126.9305, 37.6112 ], [ 126.9309, 37.6116 ], [ 126.9314, 37.6119 ], [ 126.9318, 37.612 ], [ 126.932, 37.6121 ], [ 126.9322, 37.6134 ], [ 126.9322, 37.6137 ], [ 126.9323, 37.6142 ], [ 126.9326, 37.6147 ], [ 126.933, 37.6154 ], [ 126.9331, 37.6158 ], [ 126.9331, 37.6161 ], [ 126.9329, 37.6163 ], [ 126.9328, 37.6167 ], [ 126.9328, 37.6168 ], [ 126.9329, 37.617 ], [ 126.9331, 37.6172 ], [ 126.9332, 37.6174 ], [ 126.9332, 37.6176 ], [ 126.9332, 37.6179 ], [ 126.9332, 37.6181 ], [ 126.9332, 37.6183 ], [ 126.9331, 37.6184 ], [ 126.933, 37.6187 ], [ 126.9323, 37.6196 ], [ 126.9321, 37.6206 ], [ 126.9315, 37.6223 ], [ 126.9314, 37.6224 ], [ 126.931, 37.6223 ], [ 126.9303, 37.6222 ], [ 126.93, 37.6221 ], [ 126.9295, 37.6219 ], [ 126.9292, 37.6217 ], [ 126.929, 37.6215 ], [ 126.9289, 37.6214 ], [ 126.9287, 37.6213 ], [ 126.9277, 37.6214 ], [ 126.9268, 37.6214 ], [ 126.9265, 37.6214 ], [ 126.9268, 37.6218 ], [ 126.9272, 37.6225 ], [ 126.928, 37.6235 ], [ 126.9289, 37.625 ], [ 126.9296, 37.6285 ], [ 126.9297, 37.6288 ], [ 126.9301, 37.6292 ], [ 126.9304, 37.6295 ], [ 126.9307, 37.6301 ], [ 126.9311, 37.6307 ], [ 126.9312, 37.631 ] ] ] } },
{ "type": "Feature", "properties": { "id": "59", "CONTENTS_NAME": "이동약자무료셔틀버스(12-1번 노선)", "ADDR_OLD": "서울특별시 은평구 진관동 140-3", "ADDR_NEW": "서울특별시 은평구 진관1로 77-8", "VALUE_01": "", "VALUE_02": "", "COORD_TYPE": "3" }, "geometry": { "type": "MultiLineString", "coordinates": [ [ [ 126.931, 37.6314 ], [ 126.931, 37.6312 ], [ 126.9309, 37.6311 ], [ 126.9308, 37.6307 ], [ 126.9307, 37.6305 ], [ 126.9302, 37.6297 ], [ 126.9299, 37.6294 ], [ 126.9296, 37.629 ], [ 126.9294, 37.6287 ], [ 126.9292, 37.6276 ], [ 126.9289, 37.6262 ], [ 126.9288, 37.6254 ], [ 126.9287, 37.6253 ], [ 126.9294, 37.6243 ], [ 126.9296, 37.6241 ], [ 126.9299, 37.6237 ], [ 126.9302, 37.6234 ], [ 126.9305, 37.6231 ], [ 126.9307, 37.6228 ], [ 126.9311, 37.6225 ], [ 126.9313, 37.6224 ], [ 126.9314, 37.6222 ], [ 126.9316, 37.6214 ], [ 126.9319, 37.6202 ], [ 126.9321, 37.6197 ], [ 126.9326, 37.619 ], [ 126.933, 37.6185 ], [ 126.933, 37.6182 ], [ 126.9332, 37.6179 ], [ 126.9331, 37.6176 ], [ 126.933, 37.6173 ], [ 126.9329, 37.6171 ], [ 126.9328, 37.6169 ], [ 126.9326, 37.6168 ], [ 126.9326, 37.6166 ], [ 126.9327, 37.6165 ], [ 126.9329, 37.6161 ], [ 126.9329, 37.616 ], [ 126.9329, 37.6158 ], [ 126.9329, 37.6156 ], [ 126.9328, 37.6153 ], [ 126.9322, 37.6142 ], [ 126.932, 37.6137 ], [ 126.9319, 37.6135 ], [ 126.9319, 37.613 ], [ 126.9319, 37.6127 ], [ 126.9319, 37.6125 ], [ 126.9318, 37.6122 ], [ 126.9313, 37.6121 ], [ 126.9309, 37.6118 ], [ 126.9307, 37.6117 ], [ 126.9305, 37.6115 ], [ 126.9294, 37.6109 ], [ 126.9301, 37.61 ], [ 126.9305, 37.6096 ], [ 126.931, 37.6091 ], [ 126.9315, 37.6085 ], [ 126.9326, 37.6073 ], [ 126.9333, 37.6065 ], [ 126.9339, 37.6058 ], [ 126.9343, 37.6052 ], [ 126.9346, 37.6046 ], [ 126.9347, 37.6039 ], [ 126.9348, 37.6031 ], [ 126.935, 37.6023 ], [ 126.9352, 37.6017 ], [ 126.9355, 37.6011 ], [ 126.9354, 37.601 ], [ 126.9318, 37.6013 ], [ 126.9302, 37.6015 ], [ 126.9294, 37.6016 ], [ 126.9286, 37.6016 ], [ 126.9275, 37.6016 ], [ 126.9271, 37.6016 ], [ 126.9269, 37.6004 ], [ 126.9268, 37.6 ], [ 126.9265, 37.5996 ], [ 126.9258, 37.5988 ], [ 126.9248, 37.5978 ], [ 126.9244, 37.5974 ], [ 126.924, 37.5969 ], [ 126.9237, 37.5965 ], [ 126.923, 37.5953 ], [ 126.9229, 37.5951 ], [ 126.9228, 37.5947 ], [ 126.9229, 37.5943 ], [ 126.923, 37.594 ], [ 126.923, 37.5932 ], [ 126.9228, 37.592 ], [ 126.9228, 37.5904 ], [ 126.9226, 37.5891 ], [ 126.9226, 37.5878 ], [ 126.9228, 37.586 ], [ 126.9227, 37.5859 ], [ 126.9209, 37.5873 ], [ 126.9192, 37.5887 ], [ 126.9174, 37.5901 ], [ 126.9163, 37.5909 ], [ 126.9147, 37.5923 ], [ 126.9142, 37.5926 ], [ 126.9139, 37.5926 ], [ 126.9135, 37.5913 ], [ 126.9127, 37.5877 ], [ 126.9125, 37.5872 ], [ 126.9122, 37.5866 ], [ 126.9118, 37.5861 ], [ 126.9109, 37.5853 ], [ 126.9101, 37.5845 ], [ 126.9086, 37.5831 ], [ 126.9071, 37.5817 ], [ 126.904, 37.5786 ], [ 126.902, 37.5782 ], [ 126.9013, 37.5788 ], [ 126.9002, 37.5795 ], [ 126.8992, 37.5801 ], [ 126.8956, 37.5822 ], [ 126.8978, 37.5841 ], [ 126.8999, 37.5856 ], [ 126.9014, 37.5868 ], [ 126.903, 37.5886 ], [ 126.9041, 37.5898 ], [ 126.9053, 37.5908 ], [ 126.9065, 37.5921 ], [ 126.9067, 37.5922 ], [ 126.9077, 37.5933 ], [ 126.9081, 37.5939 ], [ 126.9093, 37.5962 ], [ 126.9103, 37.5977 ], [ 126.9119, 37.5982 ], [ 126.9155, 37.5988 ], [ 126.916, 37.599 ], [ 126.9163, 37.6005 ], [ 126.9161, 37.602 ], [ 126.9156, 37.6059 ], [ 126.915592341482053, 37.605899562484822 ] ], [ [ 126.915592341482053, 37.605899562484822 ], [ 126.9121, 37.6057 ], [ 126.9106, 37.6056 ], [ 126.9095, 37.6054 ], [ 126.909111115645871, 37.605322224261286 ] ], [ [ 126.909111115645871, 37.605322224261286 ], [ 126.90875000187998, 37.605250001269191 ] ], [ [ 126.90875000187998, 37.605250001269191 ], [ 126.9085, 37.6052 ], [ 126.9079, 37.6051 ], [ 126.9073, 37.605 ], [ 126.9065, 37.6051 ], [ 126.9063, 37.6051 ], [ 126.906, 37.605 ], [ 126.9053, 37.6048 ], [ 126.9053, 37.6047 ], [ 126.9055, 37.6046 ], [ 126.9056, 37.6046 ], [ 126.9061, 37.6046 ], [ 126.9066, 37.6046 ], [ 126.9071, 37.6047 ], [ 126.9074, 37.6049 ], [ 126.9076, 37.605 ], [ 126.908, 37.605 ], [ 126.90875000187998, 37.605250001269191 ] ], [ [ 126.90875000187998, 37.605250001269191 ], [ 126.9089, 37.6053 ], [ 126.909111115645871, 37.605322224261286 ] ], [ [ 126.909111115645871, 37.605322224261286 ], [ 126.9108, 37.6055 ], [ 126.9122, 37.6056 ], [ 126.9136, 37.6057 ], [ 126.9151, 37.6058 ], [ 126.9156, 37.6058 ], [ 126.915592341482053, 37.605899562484822 ] ], [ [ 126.915592341482053, 37.605899562484822 ], [ 126.9155, 37.6071 ], [ 126.9157, 37.6083 ], [ 126.9161, 37.609 ], [ 126.917, 37.6101 ], [ 126.9174, 37.6108 ], [ 126.9175, 37.6116 ], [ 126.9179, 37.6135 ], [ 126.9181, 37.615 ], [ 126.919, 37.6162 ], [ 126.9206, 37.6185 ], [ 126.9216, 37.6189 ], [ 126.9205, 37.6202 ], [ 126.92, 37.6223 ], [ 126.92, 37.6239 ], [ 126.920039874562491, 37.624318691769773 ] ], [ [ 126.920039874562491, 37.624318691769773 ], [ 126.9202, 37.626 ], [ 126.9196, 37.6287 ], [ 126.9195, 37.6304 ], [ 126.9205, 37.6306 ], [ 126.9212, 37.6309 ], [ 126.9218, 37.6313 ], [ 126.9207, 37.6328 ], [ 126.9205, 37.6329 ], [ 126.9197, 37.6332 ], [ 126.9193, 37.6335 ], [ 126.9191, 37.634 ], [ 126.9191, 37.6345 ], [ 126.9191, 37.6348 ], [ 126.9189, 37.6375 ], [ 126.9188, 37.6389 ], [ 126.9189, 37.6391 ], [ 126.9196, 37.6391 ], [ 126.92, 37.6393 ], [ 126.921, 37.6403 ], [ 126.9215, 37.6409 ], [ 126.9218, 37.6412 ], [ 126.9218, 37.6415 ], [ 126.9217, 37.6425 ], [ 126.9217, 37.6429 ], [ 126.9218, 37.6431 ], [ 126.9232, 37.6433 ], [ 126.925, 37.6439 ], [ 126.9264, 37.6449 ], [ 126.9277, 37.6458 ], [ 126.9289, 37.6466 ], [ 126.9299, 37.6474 ], [ 126.9304, 37.6481 ], [ 126.9311, 37.6487 ], [ 126.9315, 37.6495 ], [ 126.9316, 37.6501 ], [ 126.9333, 37.6501 ], [ 126.9356, 37.6503 ], [ 126.9364, 37.6498 ], [ 126.9366, 37.6491 ], [ 126.9373, 37.6481 ], [ 126.9389, 37.6463 ], [ 126.9393, 37.6457 ], [ 126.9395, 37.6453 ], [ 126.9394, 37.6445 ], [ 126.9391, 37.6438 ], [ 126.9386, 37.6424 ], [ 126.9382, 37.6418 ], [ 126.9374, 37.641 ], [ 126.9366, 37.6402 ], [ 126.9363, 37.6398 ], [ 126.9357, 37.6391 ], [ 126.9351, 37.6382 ], [ 126.9349, 37.6376 ], [ 126.9348, 37.6371 ], [ 126.9341, 37.6364 ], [ 126.9326, 37.6349 ], [ 126.932, 37.6342 ], [ 126.9316, 37.6332 ], [ 126.9313, 37.6324 ], [ 126.9311, 37.6318 ] ] ] } }
]
}
