{
"type": "FeatureCollection",
"name": "eunpyeong_reference_zones",
"crs": { "type": "name", "properties": { "name": "urn:ogc:def:crs:OGC:1.3:CRS84" } },
"features": [
{ "type": "Feature", "properties": { "id": "71", "CONTENTS_NAME": "편백나무숲 구역도", "ADDR_OLD": "서울특별시 은평구 신사동 산 93-8", "ADDR_NEW": "서울특별시 은평구 은평터널로7길 6", "VALUE_01": "은평구 봉산에 조성된 ‘편백나무 치유의 숲’은 2014년부터 약 1만 2–13천 그루의 편백나무를 심어 조성한 곳으로, 서울 시내에서 보기 드문 편백 인공림입니다\n\n무장애 데크길이 약 1.35㎞ 이어져 편백정·전망대까지 보행약자나 유모차 이용자도 쉽게 오를 수 있으며, 정상에서는 북한산·남산 N타워 등 서울 전경을 조망할 수 있습니다\n\n편백나무에서 나오는 피톤치드 덕에 스트레스 완화·심폐 기능 강화·살균 효과가 기대되며, 숲길 곳곳에 꽃잔디·데이지·붓꽃 등 야생화도 심어 경관과 생태 요소를 동시에 즐길 수 있어 힐링 명소로 주목받습니다\n\n", "VALUE_02": "", "COORD_TYPE": "5" }, "geometry": { "type": "Polygon", "coordinates": [ [ [ 126.9034, 37.5936 ], [ 126.9032, 37.5935 ], [ 126.9031, 37.5935 ], [ 126.9028, 37.5935 ], [ 126.9025, 37.5937 ], [ 126.9023, 37.5935 ], [ 126.9024, 37.5933 ], [ 126.9022, 37.5932 ], [ 126.9017, 37.5931 ], [ 126.9014, 37.593 ], [ 126.9013, 37.593 ], [ 126.9013, 37.5934 ], [ 126.9015, 37.5935 ], [ 126.9015, 37.5937 ], [ 126.9018, 37.5937 ], [ 126.902, 37.5936 ], [ 126.9022, 37.5936 ], [ 126.9021, 37.5938 ], [ 126.9018, 37.594 ], [ 126.9016, 37.5944 ], [ 126.9015, 37.5948 ], [ 126.9019, 37.5951 ], [ 126.9017, 37.5959 ], [ 126.9026, 37.5965 ], [ 126.9032, 37.5967 ], [ 126.9033, 37.5964 ], [ 126.9032, 37.5963 ], [ 126.9028, 37.5961 ], [ 126.9028, 37.5959 ], [ 126.9029, 37.5959 ], [ 126.9031, 37.5957 ], [ 126.9028, 37.5955 ], [ 126.9027, 37.5954 ], [ 126.9028, 37.5952 ], [ 126.9031, 37.5951 ], [ 126.9035, 37.5953 ], [ 126.9036, 37.5955 ], [ 126.9039, 37.5955 ], [ 126.9041, 37.5954 ], [ 126.9044, 37.5953 ], [ 126.9045, 37.5952 ], [ 126.9049, 37.5951 ], [ 126.905, 37.595 ], [ 126.9051, 37.5947 ], [ 126.9049, 37.5947 ], [ 126.9049, 37.5945 ], [ 126.9049, 37.5944 ], [ 126.9052, 37.5944 ], [ 126.9052, 37.5942 ], [ 126.9051, 37.5941 ], [ 126.9048, 37.5941 ], [ 126.9049, 37.5938 ], [ 126.9049, 37.5935 ], [ 126.9034, 37.5936 ] ] ] } }
]
}
