{
"type": "FeatureCollection",
"name": "eunpyeong_accessible_trails",
"crs": { "type": "name", "properties": { "name": "urn:ogc:def:crs:OGC:1.3:CRS84" } },
"features": [
{ "type": "Feature", "properties": { "id": "57", "CONTENTS_NAME": "봉산편백나무숲길 산책로", "ADDR_OLD": "서울특별시 은평구 신사동 산 93-16", "ADDR_NEW": "서울특별시 은평구 은평터널로7길 45-1", "VALUE_01": "", "VALUE_02": "", "COORD_TYPE": "3" }, "geometry": { "type": "MultiLineString", "coordinates": [ [ [ 126.9012, 37.5929 ], [ 126.9011, 37.5927 ], [ 126.9009, 37.5928 ], [ 126.9008, 37.5927 ], [ 126.9009, 37.5927 ], [ 126.901, 37.5926 ], [ 126.9007, 37.5925 ] ], [ [ 126.9007, 37.5925 ], [ 126.9007, 37.5923 ], [ 126.9006, 37.5923 ], [ 126.9007, 37.5925 ] ], [ [ 126.9007, 37.5925 ], [ 126.9007, 37.5926 ], [ 126.9006, 37.5927 ], [ 126.9004, 37.5927 ], [ 126.9005, 37.5928 ], [ 126.9006, 37.5929 ], [ 126.9008, 37.593 ], [ 126.9008, 37.5931 ], [ 126.9008, 37.5934 ], [ 126.9007, 37.5932 ], [ 126.9007, 37.5931 ], [ 126.9002, 37.5929 ], [ 126.9006, 37.5931 ], [ 126.9006, 37.5932 ], [ 126.9005, 37.5934 ], [ 126.9006, 37.5936 ], [ 126.9008, 37.5937 ], [ 126.9009, 37.5938 ], [ 126.9006, 37.5937 ], [ 126.9004, 37.5936 ], [ 126.9005, 37.5937 ], [ 126.9006, 37.5938 ], [ 126.9007, 37.5939 ], [ 126.901, 37.594 ], [ 126.9006, 37.5939 ], [ 126.9009, 37.594 ], [ 126.901, 37.5941 ], [ 126.9011, 37.5941 ], [ 126.9012, 37.594 ], [ 126.9012, 37.5939 ], [ 126.9015, 37.5939 ], [ 126.9016, 37.5939 ] ], [ [ 126.9016, 37.5939 ], [ 126.9018, 37.5938 ] ], [ [ 126.9018, 37.5938 ], [ 126.902, 37.5936 ], [ 126.9022, 37.5936 ], [ 126.9021, 37.5938 ], [ 126.9018, 37.5938 ] ], [ [ 126.9016, 37.5939 ], [ 126.9019, 37.5939 ], [ 126.902, 37.594 ], [ 126.9018, 37.5943 ], [ 126.9018, 37.5945 ], [ 126.9019, 37.5946 ], [ 126.902, 37.5946 ], [ 126.9021, 37.5947 ], [ 126.9022, 37.5948 ], [ 126.9021, 37.5948 ], [ 126.9019, 37.5947 ], [ 126.9017, 37.5946 ], [ 126.9017, 37.5945 ], [ 126.9016, 37.5943 ], [ 126.9016, 37.5945 ], [ 126.9016, 37.5946 ], [ 126.9016, 37.5947 ], [ 126.9018, 37.5948 ], [ 126.9018, 37.5949 ] ], [ [ 126.9018, 37.5949 ], [ 126.902, 37.595 ] ], [ [ 126.9018, 37.5949 ], [ 126.9018, 37.595 ], [ 126.902, 37.5951 ], [ 126.9019, 37.5954 ], [ 126.902, 37.5955 ], [ 126.902, 37.5956 ] ], [ [ 126.902, 37.5956 ], [ 126.9019, 37.5956 ] ], [ [ 126.902, 37.5956 ], [ 126.902, 37.5957 ] ], [ [ 126.902, 37.5957 ], [ 126.9018, 37.5957 ] ], [ [ 126.9018, 37.5957 ], [ 126.901800000000904, 37.5958 ] ], [ [ 126.901800000000904, 37.5958 ], [ 126.9018, 37.5959 ], [ 126.9018, 37.5958 ], [ 126.901800000000904, 37.5958 ] ], [ [ 126.901800000000904, 37.5958 ], [ 126.9019, 37.5958 ] ], [ [ 126.9019, 37.5958 ], [ 126.902, 37.5958 ] ], [ [ 126.9019, 37.5958 ], [ 126.9019, 37.596 ], [ 126.9018, 37.5961 ], [ 126.9016, 37.5962 ], [ 126.9015, 37.5963 ], [ 126.9014, 37.5964 ], [ 126.9014, 37.5965 ], [ 126.9014, 37.5966 ], [ 126.9014, 37.5968 ], [ 126.9012, 37.5969 ], [ 126.9013, 37.5971 ], [ 126.9013, 37.5974 ], [ 126.9014, 37.5976 ], [ 126.9016, 37.5977 ], [ 126.9016, 37.5979 ], [ 126.9017, 37.5981 ], [ 126.9018, 37.5982 ], [ 126.9017, 37.5983 ], [ 126.9016, 37.5986 ], [ 126.9016, 37.5988 ], [ 126.9018, 37.599 ], [ 126.902, 37.5991 ], [ 126.9019, 37.5992 ], [ 126.9018, 37.5992 ], [ 126.9018, 37.5993 ], [ 126.9018, 37.5994 ], [ 126.9016, 37.5997 ], [ 126.9017, 37.5998 ], [ 126.9017, 37.5999 ], [ 126.9017, 37.6001 ], [ 126.9014, 37.6002 ], [ 126.9013, 37.6003 ], [ 126.9013, 37.6004 ], [ 126.901, 37.6006 ], [ 126.9009, 37.6007 ], [ 126.9007, 37.6011 ], [ 126.9006, 37.6013 ], [ 126.9006, 37.6016 ], [ 126.9004, 37.6018 ], [ 126.9003, 37.602 ], [ 126.9004, 37.6022 ], [ 126.9004, 37.6024 ], [ 126.9005, 37.6024 ], [ 126.9006, 37.6027 ], [ 126.9005, 37.6028 ], [ 126.9004, 37.6031 ], [ 126.9004, 37.6032 ], [ 126.9006, 37.6032 ], [ 126.9007, 37.6032 ], [ 126.9015, 37.6033 ], [ 126.9018, 37.6035 ], [ 126.901902472252971, 37.603653708720792 ] ], [ [ 126.902042215419144, 37.604184430978044 ], [ 126.9021, 37.6043 ], [ 126.9019, 37.6047 ], [ 126.9019, 37.6049 ] ] ] } },
{ "type": "Feature", "properties": { "id": "56", "CONTENTS_NAME": "봉산무장애숲길 산책로", "ADDR_OLD": "서울특별시 은평구 구산동 산 135-1", "ADDR_NEW": "서울특별시 은평구 서오릉로25길 27", "VALUE_01": "", "VALUE_02": "", "COORD_TYPE": "3" }, "geometry": { "type": "MultiLineString", "coordinates": [ [ [ 126.9041, 37.6162 ], [ 126.9041, 37.6163 ], [ 126.904, 37.6163 ], [ 126.904, 37.6161 ], [ 126.9039, 37.6159 ], [ 126.9039, 37.616 ], [ 126.9038, 37.6161 ], [ 126.9038, 37.6159 ], [ 126.9038, 37.6158 ], [ 126.904, 37.6155 ], [ 126.9039, 37.6153 ], [ 126.904, 37.6153 ], [ 126.9041, 37.6153 ], [ 126.9042, 37.6153 ], [ 126.9045, 37.6152 ], [ 126.9047, 37.615 ], [ 126.9047, 37.6149 ], [ 126.9048, 37.6148 ], [ 126.9048, 37.6147 ], [ 126.9047, 37.6148 ], [ 126.9046, 37.6148 ], [ 126.9045, 37.615 ], [ 126.9043, 37.6151 ], [ 126.904, 37.615 ], [ 126.9038, 37.615 ], [ 126.9036, 37.615 ], [ 126.9037, 37.6151 ], [ 126.9036, 37.6151 ], [ 126.9035, 37.6151 ], [ 126.9035, 37.6152 ], [ 126.9036, 37.6153 ], [ 126.9036, 37.6155 ], [ 126.9036, 37.6156 ], [ 126.9035, 37.6157 ], [ 126.9035, 37.6158 ], [ 126.9032, 37.6161 ], [ 126.903, 37.6162 ], [ 126.9028, 37.6162 ], [ 126.9027, 37.6163 ], [ 126.9026, 37.6163 ], [ 126.9027, 37.6162 ], [ 126.9031, 37.6161 ], [ 126.9032, 37.6159 ], [ 126.9033, 37.6157 ], [ 126.9034, 37.6156 ], [ 126.9033, 37.6155 ], [ 126.9032, 37.6152 ], [ 126.903, 37.6148 ], [ 126.9031, 37.6146 ], [ 126.9033, 37.6146 ], [ 126.9034, 37.6145 ], [ 126.9035, 37.6145 ], [ 126.903400000000914, 37.614300000001819 ] ], [ [ 126.903400000000914, 37.614300000001819 ], [ 126.9034, 37.6143 ], [ 126.903400000000687, 37.614249978293962 ] ], [ [ 126.903400000000687, 37.614249978293962 ], [ 126.9034, 37.6141 ], [ 126.9034, 37.6142 ], [ 126.903400000000687, 37.614249978293962 ] ], [ [ 126.903400000000687, 37.614249978293962 ], [ 126.903400000000914, 37.614300000001819 ] ], [ [ 126.903400000000914, 37.614300000001819 ], [ 126.9034, 37.6144 ], [ 126.9033, 37.6144 ], [ 126.9033, 37.6145 ], [ 126.903, 37.6145 ], [ 126.9029, 37.6145 ], [ 126.9028, 37.6148 ], [ 126.9027, 37.6148 ], [ 126.9028, 37.6146 ], [ 126.9028, 37.6144 ], [ 126.9029, 37.6144 ], [ 126.9031, 37.6143 ], [ 126.9029, 37.6143 ], [ 126.9027, 37.6143 ], [ 126.9027, 37.6145 ], [ 126.9027, 37.6147 ], [ 126.9026, 37.6147 ], [ 126.9027, 37.6146 ], [ 126.9026, 37.6144 ], [ 126.902699999978807, 37.614200000042374 ] ], [ [ 126.902699999978807, 37.614200000042374 ], [ 126.9027, 37.6142 ], [ 126.9028, 37.6142 ] ], [ [ 126.9028, 37.6142 ], [ 126.9029, 37.6141 ], [ 126.9029, 37.614 ], [ 126.9028, 37.614 ], [ 126.9028, 37.6141 ], [ 126.9028, 37.6142 ] ], [ [ 126.9028, 37.6142 ], [ 126.902699999978807, 37.614200000042374 ] ], [ [ 126.902699999978807, 37.614200000042374 ], [ 126.9026, 37.6142 ], [ 126.902500000000927, 37.614399999998184 ] ], [ [ 126.902500000000927, 37.614399999998184 ], [ 126.9025, 37.6144 ], [ 126.9025, 37.6145 ] ], [ [ 126.9025, 37.6145 ], [ 126.9025, 37.6146 ], [ 126.9024, 37.6146 ], [ 126.9025, 37.6145 ] ], [ [ 126.9025, 37.6145 ], [ 126.902500000000927, 37.614399999998184 ] ], [ [ 126.902500000000927, 37.614399999998184 ], [ 126.9025, 37.6143 ], [ 126.9025, 37.614200000178613 ] ], [ [ 126.9025, 37.614200000178613 ], [ 126.9025, 37.6142 ], [ 126.9026, 37.6141 ], [ 126.9025, 37.614200000178613 ] ], [ [ 126.9025, 37.614200000178613 ], [ 126.9024, 37.6143 ], [ 126.9024, 37.6145 ], [ 126.9022, 37.6147 ], [ 126.9022, 37.615 ], [ 126.9021, 37.6149 ], [ 126.9021, 37.6148 ], [ 126.9021, 37.6146 ], [ 126.9022, 37.6144 ], [ 126.9022, 37.6141 ], [ 126.9022, 37.614 ], [ 126.9021, 37.6139 ], [ 126.9021, 37.6138 ], [ 126.9022, 37.6138 ], [ 126.9022, 37.6137 ], [ 126.9021, 37.6135 ], [ 126.902049999933681, 37.613500000010596 ] ], [ [ 126.902049999933681, 37.613500000010596 ], [ 126.902, 37.6135 ], [ 126.902, 37.6134 ] ], [ [ 126.902, 37.6134 ], [ 126.9019, 37.6133 ] ], [ [ 126.902, 37.6134 ], [ 126.902049999933681, 37.613500000010596 ] ], [ [ 126.902049999933681, 37.613500000010596 ], [ 126.9021, 37.6136 ], [ 126.902, 37.614 ] ], [ [ 126.902, 37.614 ], [ 126.902, 37.6142 ] ], [ [ 126.902, 37.614 ], [ 126.9019, 37.614 ], [ 126.9019, 37.6138 ], [ 126.9018, 37.6135 ], [ 126.9018, 37.6134 ], [ 126.9018, 37.6133 ], [ 126.9017, 37.6135 ], [ 126.9017, 37.6136 ], [ 126.9018, 37.6138 ] ], [ [ 126.9018, 37.6138 ], [ 126.9018, 37.6141 ], [ 126.9018, 37.614 ], [ 126.9018, 37.6139 ], [ 126.9018, 37.6138 ] ], [ [ 126.9018, 37.6138 ], [ 126.9017, 37.6137 ], [ 126.9016, 37.6137 ], [ 126.9016, 37.6136 ], [ 126.9016, 37.6134 ], [ 126.9016, 37.6133 ], [ 126.9015, 37.613 ], [ 126.9014, 37.6128 ], [ 126.9014, 37.6127 ], [ 126.9014, 37.6126 ], [ 126.9013, 37.6127 ], [ 126.9013, 37.6128 ], [ 126.9014, 37.6131 ], [ 126.9014, 37.6132 ], [ 126.9014, 37.6133 ], [ 126.9014, 37.6134 ], [ 126.9013, 37.6133 ], [ 126.9013, 37.6131 ], [ 126.9013, 37.613 ], [ 126.9012, 37.613 ], [ 126.9012, 37.6128 ], [ 126.9012, 37.6126 ] ], [ [ 126.9012, 37.6126 ], [ 126.9012, 37.6125 ] ], [ [ 126.9012, 37.6126 ], [ 126.9011, 37.6129 ], [ 126.9011, 37.6127 ], [ 126.9011, 37.6126 ] ], [ [ 126.9011, 37.6126 ], [ 126.9012, 37.6125 ] ], [ [ 126.9012, 37.6125 ], [ 126.9012, 37.6124 ], [ 126.9011, 37.6125 ], [ 126.9011, 37.6126 ] ] ] } }
]
}
