{
"type": "FeatureCollection",
"name": "eunpyeong_wheelchair_obstacles",
"crs": { "type": "name", "properties": { "name": "urn:ogc:def:crs:OGC:1.3:CRS84" } },
"features": [
{ "type": "Feature", "properties": { "obstacle_id": "EP_OBS_001", "id": "626", "CONTENTS_NAME": "보행장해물-볼라드", "ADDR_OLD": "서울특별시 은평구 증산동 222-6", "ADDR_NEW": "서울특별시 은평구 수색로 188", "VALUE_07": "", "VALUE_08": "PT_8C_볼라드|", "VALUE_09": "" }, "geometry": { "type": "Point", "coordinates": [ 126.9022, 37.5781 ] } },
{ "type": "Feature", "properties": { "obstacle_id": "EP_OBS_002", "id": "625", "CONTENTS_NAME": "보행장해물-볼라드", "ADDR_OLD": "서울특별시 은평구 증산동 222-6", "ADDR_NEW": "서울특별시 은평구 수색로 188", "VALUE_07": "", "VALUE_08": "PT_8C_볼라드|", "VALUE_09": "" }, "geometry": { "type": "Point", "coordinates": [ 126.902, 37.5783 ] } },
{ "type": "Feature", "properties": { "obstacle_id": "EP_OBS_003", "id": "632", "CONTENTS_NAME": "보행장해물-기타", "ADDR_OLD": "서울특별시 은평구 응암동 122-32", "ADDR_NEW": "서울특별시 은평구 불광천길 486", "VALUE_07": "", "VALUE_08": "", "VALUE_09": "기타|자전거 진입 방해용 철봉|" }, "geometry": { "type": "Point", "coordinates": [ 126.9156, 37.5956 ] } },
{ "type": "Feature", "properties": { "obstacle_id": "EP_OBS_004", "id": "631", "CONTENTS_NAME": "보행장해물-기타", "ADDR_OLD": "서울특별시 은평구 신사동 24-7", "ADDR_NEW": "서울특별시 은평구 증산로 445", "VALUE_07": "", "VALUE_08": "", "VALUE_09": "기타|자전거진입방해철봉|" }, "geometry": { "type": "Point", "coordinates": [ 126.915, 37.5957 ] } },
{ "type": "Feature", "properties": { "obstacle_id": "EP_OBS_005", "id": "633", "CONTENTS_NAME": "보행장해물-과속방지턱", "ADDR_OLD": "서울특별시 은평구 응암동 112-24", "ADDR_NEW": "서울특별시 은평구 불광천길 558", "VALUE_07": "", "VALUE_08": "", "VALUE_09": "PT_9O_과속방지턱|" }, "geometry": { "type": "Point", "coordinates": [ 126.9164, 37.5988 ] } },
{ "type": "Feature", "properties": { "obstacle_id": "EP_OBS_006", "id": "634", "CONTENTS_NAME": "보행장해물-과속방지턱", "ADDR_OLD": "서울특별시 은평구 응암동 112-24", "ADDR_NEW": "서울특별시 은평구 불광천길 558", "VALUE_07": "", "VALUE_08": "", "VALUE_09": "PT_9O_과속방지턱|" }, "geometry": { "type": "Point", "coordinates": [ 126.9164, 37.5988 ] } },
{ "type": "Feature", "properties": { "obstacle_id": "EP_OBS_007", "id": "659", "CONTENTS_NAME": "보행장해물-과속방지턱", "ADDR_OLD": "서울특별시 은평구 응암동 112-24", "ADDR_NEW": "서울특별시 은평구 불광천길 558", "VALUE_07": "", "VALUE_08": "", "VALUE_09": "PT_9O_과속방지턱|" }, "geometry": { "type": "Point", "coordinates": [ 126.9164, 37.5988 ] } },
{ "type": "Feature", "properties": { "obstacle_id": "EP_OBS_008", "id": "635", "CONTENTS_NAME": "보행장해물-기타", "ADDR_OLD": "서울특별시 은평구 응암동 112-22", "ADDR_NEW": "서울특별시 은평구 불광천길 560", "VALUE_07": "", "VALUE_08": "", "VALUE_09": "기타|막다른길|" }, "geometry": { "type": "Point", "coordinates": [ 126.9165, 37.599 ] } }
]
}
