{
"type": "FeatureCollection",
"name": "eunpyeong_wheelchair_routes",
"crs": { "type": "name", "properties": { "name": "urn:ogc:def:crs:OGC:1.3:CRS84" } },
"features": [
{ "type": "Feature", "properties": { "route_id": "EP_ROUTE_001", "id": "1568", "CONTENTS_NAME": "0", "ADDR_OLD": "서울특별시 은평구 증산동 223-5", "ADDR_NEW": "서울특별시 은평구 수색로 181", "접근성등급": "우수", "VALUE_01": "우수: 생활환경(BF) 인증 기준을 만족하며, 수동/전동 휠체어, 유모차 등 모든 보행약자의 편안한 이동이 가능한 추천 길|", "VALUE_02": "PW_BA_해당구간 1.8m이상|", "VALUE_03": "PS_CA_해당구간 평지~1°|", "VALUE_04": "PG_DA_해당구간 평지|", "VALUE_05": "PS_5A_아스팔트, 콘크리트, 보도블럭, 나무 등 평탄한 재질로 줄눈/틈새 간격 0.6cm 미만|" }, "geometry": { "type": "LineString", "coordinates": [ [ 126.9015, 37.5781 ], [ 126.9018, 37.5783 ], [ 126.902, 37.5783 ], [ 126.9021, 37.5782 ], [ 126.9023, 37.578 ], [ 126.902822921562418, 37.577477079156772 ] ] } },
{ "type": "Feature", "properties": { "route_id": "EP_ROUTE_002", "id": "1556", "CONTENTS_NAME": "0", "ADDR_OLD": "서울특별시 은평구 수색동 37-2", "ADDR_NEW": "서울특별시 은평구 수색로 193", "접근성등급": "우수", "VALUE_01": "우수: 생활환경(BF) 인증 기준을 만족하며, 수동/전동 휠체어, 유모차 등 모든 보행약자의 편안한 이동이 가능한 추천 길|", "VALUE_02": "PW_BA_해당구간 1.8m이상|", "VALUE_03": "PS_CA_해당구간 평지~1°|", "VALUE_04": "PG_DA_해당구간 평지|", "VALUE_05": "PS_5A_아스팔트, 콘크리트, 보도블럭, 나무 등 평탄한 재질로 줄눈/틈새 간격 0.6cm 미만|" }, "geometry": { "type": "LineString", "coordinates": [ [ 126.9003, 37.5781 ], [ 126.9004, 37.5782 ], [ 126.9007, 37.5782 ], [ 126.9011, 37.5785 ], [ 126.9016, 37.5781 ], [ 126.9018, 37.5779 ], [ 126.9021, 37.5776 ], [ 126.9022, 37.5775 ] ] } },
{ "type": "Feature", "properties": { "route_id": "EP_ROUTE_003", "id": "1499", "CONTENTS_NAME": "0", "ADDR_OLD": "서울특별시 마포구 성산동 342-2", "ADDR_NEW": "", "접근성등급": "우수", "VALUE_01": "우수: 생활환경(BF) 인증 기준을 만족하며, 수동/전동 휠체어, 유모차 등 모든 보행약자의 편안한 이동이 가능한 추천 길|", "VALUE_02": "PW_BA_해당구간 1.8m이상|", "VALUE_03": "PS_CA_해당구간 평지~1°|", "VALUE_04": "PG_DA_해당구간 평지|", "VALUE_05": "PS_5A_아스팔트, 콘크리트, 보도블럭, 나무 등 평탄한 재질로 줄눈/틈새 간격 0.6cm 미만|" }, "geometry": { "type": "MultiLineString", "coordinates": [ [ [ 126.902036921772989, 37.576036922450925 ], [ 126.9022, 37.5762 ], [ 126.902460058850849, 37.57642290919015 ] ], [ [ 126.912981086335421, 37.587162172866975 ], [ 126.913, 37.5872 ], [ 126.9132, 37.5878 ], [ 126.9133, 37.5885 ], [ 126.9135, 37.5893 ], [ 126.9138, 37.5903 ], [ 126.914, 37.5911 ], [ 126.9142, 37.592 ], [ 126.9144, 37.5929 ], [ 126.9147, 37.5939 ], [ 126.9149, 37.5948 ], [ 126.9152, 37.5958 ], [ 126.9154, 37.5967 ], [ 126.9156, 37.5975 ] ] ] } },
{ "type": "Feature", "properties": { "route_id": "EP_ROUTE_004", "id": "1065", "CONTENTS_NAME": "1", "ADDR_OLD": "서울특별시 은평구 증산동 177-2", "ADDR_NEW": "서울특별시 은평구 증산로 259", "접근성등급": "보통", "VALUE_01": "보통: 생활환경(BF) 인증 기준에는 만족하지 않으나, 전동 휠체어나 보호자 동반 시 보행약자의 이동이 가능한 길|", "VALUE_02": "PW_BB_해당구간 1.2m~17m|", "VALUE_03": "PS_CC_해당구간 4~6°|", "VALUE_04": "PG_DA_해당구간 평지|", "VALUE_05": "PS_5A_아스팔트, 콘크리트, 보도블럭, 나무 등 평탄한 재질로 줄눈/틈새 간격 0.6cm 미만|" }, "geometry": { "type": "LineString", "coordinates": [ [ 126.906599269755475, 37.580824817589985 ], [ 126.9065, 37.5808 ], [ 126.906323257802129, 37.580564344343443 ] ] } },
{ "type": "Feature", "properties": { "route_id": "EP_ROUTE_005", "id": "1570", "CONTENTS_NAME": "0", "ADDR_OLD": "서울특별시 은평구 증산동 169-35", "ADDR_NEW": "서울특별시 은평구 증산로 297", "접근성등급": "우수", "VALUE_01": "우수: 생활환경(BF) 인증 기준을 만족하며, 수동/전동 휠체어, 유모차 등 모든 보행약자의 편안한 이동이 가능한 추천 길|", "VALUE_02": "PW_BA_해당구간 1.8m이상|", "VALUE_03": "PS_CA_해당구간 평지~1°|", "VALUE_04": "PG_DA_해당구간 평지|", "VALUE_05": "PS_5A_아스팔트, 콘크리트, 보도블럭, 나무 등 평탄한 재질로 줄눈/틈새 간격 0.6cm 미만|" }, "geometry": { "type": "LineString", "coordinates": [ [ 126.9095, 37.5836 ], [ 126.9094, 37.5835 ], [ 126.908636227877935, 37.582736229704039 ] ] } },
{ "type": "Feature", "properties": { "route_id": "EP_ROUTE_006", "id": "1023", "CONTENTS_NAME": "0", "ADDR_OLD": "서울특별시 은평구 증산동 169-9", "ADDR_NEW": "서울특별시 은평구 증산로7길 2", "접근성등급": "보통", "VALUE_01": "보통: 생활환경(BF) 인증 기준에는 만족하지 않으나, 전동 휠체어나 보호자 동반 시 보행약자의 이동이 가능한 길|", "VALUE_02": "PW_BA_해당구간 1.8m이상|", "VALUE_03": "PS_CC_해당구간 4~6°|", "VALUE_04": "PG_DA_해당구간 평지|", "VALUE_05": "PS_5D_자갈, 석재 등 요철이 심한 재질로 줄눈/틈새 간격 2cm이상이|" }, "geometry": { "type": "LineString", "coordinates": [ [ 126.909544369897688, 37.583588740255188 ], [ 126.9096, 37.5837 ], [ 126.9095, 37.5836 ] ] } },
{ "type": "Feature", "properties": { "route_id": "EP_ROUTE_007", "id": "1567", "CONTENTS_NAME": "0", "ADDR_OLD": "서울특별시 은평구 증산동 159-5", "ADDR_NEW": "서울특별시 은평구 증산로 353", "접근성등급": "우수", "VALUE_01": "우수: 생활환경(BF) 인증 기준을 만족하며, 수동/전동 휠체어, 유모차 등 모든 보행약자의 편안한 이동이 가능한 추천 길|", "VALUE_02": "PW_BA_해당구간 1.8m이상|", "VALUE_03": "PS_CA_해당구간 평지~1°|", "VALUE_04": "PG_DA_해당구간 평지|", "VALUE_05": "PS_5A_아스팔트, 콘크리트, 보도블럭, 나무 등 평탄한 재질로 줄눈/틈새 간격 0.6cm 미만|" }, "geometry": { "type": "LineString", "coordinates": [ [ 126.9132, 37.5879 ], [ 126.9136, 37.5879 ] ] } },
{ "type": "Feature", "properties": { "route_id": "EP_ROUTE_008", "id": "1502", "CONTENTS_NAME": "0", "ADDR_OLD": "서울특별시 서대문구 북가좌동 408-1", "ADDR_NEW": "", "접근성등급": "우수", "VALUE_01": "우수: 생활환경(BF) 인증 기준을 만족하며, 수동/전동 휠체어, 유모차 등 모든 보행약자의 편안한 이동이 가능한 추천 길|", "VALUE_02": "PW_BA_해당구간 1.8m이상|", "VALUE_03": "PS_CA_해당구간 평지~1°|", "VALUE_04": "PG_DA_해당구간 평지|", "VALUE_05": "PS_5A_아스팔트, 콘크리트, 보도블럭, 나무 등 평탄한 재질로 줄눈/틈새 간격 0.6cm 미만|" }, "geometry": { "type": "LineString", "coordinates": [ [ 126.913350084681952, 37.587000509265081 ], [ 126.9134, 37.5873 ], [ 126.9136, 37.5878 ], [ 126.9138, 37.5886 ], [ 126.9139, 37.5893 ], [ 126.9141, 37.5902 ], [ 126.9143, 37.5909 ], [ 126.9145, 37.5917 ], [ 126.9147, 37.5927 ], [ 126.915, 37.5935 ], [ 126.9151, 37.5941 ], [ 126.9153, 37.5949 ], [ 126.9155, 37.5956 ], [ 126.9157, 37.5963 ], [ 126.9159, 37.597 ], [ 126.916, 37.5977 ], [ 126.9162, 37.5983 ], [ 126.9163, 37.5986 ] ] } },
{ "type": "Feature", "properties": { "route_id": "EP_ROUTE_009", "id": "1027", "CONTENTS_NAME": "1", "ADDR_OLD": "서울특별시 은평구 신사동 337-1", "ADDR_NEW": "서울특별시 은평구 증산로 395", "접근성등급": "보통", "VALUE_01": "보통: 생활환경(BF) 인증 기준에는 만족하지 않으나, 전동 휠체어나 보호자 동반 시 보행약자의 이동이 가능한 길|", "VALUE_02": "PW_BA_해당구간 1.8m이상|", "VALUE_03": "PS_CC_해당구간 4~6°|", "VALUE_04": "PG_DA_해당구간 평지|", "VALUE_05": "PS_5A_아스팔트, 콘크리트, 보도블럭, 나무 등 평탄한 재질로 줄눈/틈새 간격 0.6cm 미만|" }, "geometry": { "type": "LineString", "coordinates": [ [ 126.9139, 37.5915 ], [ 126.9139, 37.5911 ] ] } },
{ "type": "Feature", "properties": { "route_id": "EP_ROUTE_010", "id": "1028", "CONTENTS_NAME": "1", "ADDR_OLD": "서울특별시 은평구 응암동 610-2", "ADDR_NEW": "서울특별시 은평구 증산로 414", "접근성등급": "보통", "VALUE_01": "보통: 생활환경(BF) 인증 기준에는 만족하지 않으나, 전동 휠체어나 보호자 동반 시 보행약자의 이동이 가능한 길|", "VALUE_02": "PW_BA_해당구간 1.8m이상|", "VALUE_03": "PS_CD_해당구간 7° 이상|", "VALUE_04": "PG_DA_해당구간 평지|", "VALUE_05": "PS_5A_아스팔트, 콘크리트, 보도블럭, 나무 등 평탄한 재질로 줄눈/틈새 간격 0.6cm 미만|" }, "geometry": { "type": "LineString", "coordinates": [ [ 126.9143, 37.5931 ], [ 126.9145, 37.5934 ] ] } },
{ "type": "Feature", "properties": { "route_id": "EP_ROUTE_011", "id": "1068", "CONTENTS_NAME": "1", "ADDR_OLD": "서울특별시 은평구 응암동 112-26", "ADDR_NEW": "서울특별시 은평구 불광천길 550", "접근성등급": "보통", "VALUE_01": "보통: 생활환경(BF) 인증 기준에는 만족하지 않으나, 전동 휠체어나 보호자 동반 시 보행약자의 이동이 가능한 길|", "VALUE_02": "PW_BC_해당구간 0.9m~1.1m|", "VALUE_03": "PS_CA_해당구간 평지~1°|", "VALUE_04": "PG_DA_해당구간 평지|", "VALUE_05": "PS_5A_아스팔트, 콘크리트, 보도블럭, 나무 등 평탄한 재질로 줄눈/틈새 간격 0.6cm 미만|" }, "geometry": { "type": "MultiLineString", "coordinates": [ [ [ 126.9163, 37.5986 ], [ 126.9165, 37.599 ], [ 126.9166, 37.5991 ], [ 126.9159, 37.599 ], [ 126.9157, 37.5982 ], [ 126.9156, 37.5981 ], [ 126.9155, 37.5977 ] ], [ [ 126.9155, 37.5977 ], [ 126.9156, 37.5975 ] ], [ [ 126.9155, 37.5977 ], [ 126.915, 37.5957 ] ], [ [ 126.915, 37.5957 ], [ 126.9152, 37.5959 ] ], [ [ 126.915, 37.5957 ], [ 126.9156, 37.5956 ], [ 126.916, 37.5969 ] ], [ [ 126.916, 37.5969 ], [ 126.9158, 37.5968 ] ], [ [ 126.916, 37.5969 ], [ 126.9165, 37.5989 ] ] ] } }
]
}
